KUIPER-00053            
1 64513U 25134P   25204.18208501  .00031905  00000+0  89244-3 0  9999
2 64513  51.8756 187.4720 0002008 194.2725 165.8205 15.36378915  5811
KUIPER-00054            
1 64514U 25134Q   25204.38109301  .00029586  00000+0  83250-3 0  9993
2 64514  51.8744 186.5576 0002521 189.4362 170.6577 15.36232004  5848
KUIPER-00055            
1 64515U 25134R   25204.36867609  .00034365  00000+0  94596-3 0  9990
2 64515  51.8759 186.4770 0000699  97.6643 262.4423 15.36842610  5846
KUIPER-00056            
1 64516U 25134S   25204.64553439  .00036476  00000+0  10320-2 0  9992
2 64516  51.8723 185.3257 0003003 201.5907 158.4953 15.35955932  5424
KUIPER-00057            
1 64517U 25134T   25204.14078317  .00015963  00000+0  47216-3 0  9998
2 64517  51.8682 187.9288 0006021 215.8325 144.2257 15.35052574  5808
KUIPER-00058            
1 64518U 25134U   25204.32698206  .00016094  00000+0  46773-3 0  9997
2 64518  51.8708 186.9360 0004408 212.4508 147.6207 15.35607333  5835
KUIPER-00059            
1 64519U 25134V   25204.37031182  .00038867  00000+0  10705-2 0  9994
2 64519  51.8749 186.4827 0000844 142.5583 217.5463 15.36766010  5841
KUIPER-00060            
1 64520U 25134W   25204.24463228  .00042551  00000+0  11777-2 0  9997
2 64520  51.8754 187.1430 0002141 152.7788 207.3311 15.36571809  5815
